branch,track_maintenance_area,track_maintenance_control_room,road_administrator,route,address,transportation_bureau,prefecture,railway,name,kana,latitude,longitude,kilometer,starting_station,ending_station,rc_type,rc_type_detail,lines
近統(神戸),加古川保線区,西脇保線管理室,加古川市,中津美乃利線,兵庫県加古川市加古川町中津字樋掛388-2,近畿,兵庫,加古川線,日岡第二,ひおかだいに,34.770854,134.850095,1.205,加古川,日岡,１種,自動(甲),単線
近統(神戸),加古川保線区,西脇保線管理室,加古川市,中津水足線,兵庫県加古川市加古川町大野字穴バリ388-2,近畿,兵庫,加古川線,日岡第三,ひおかだいさん,34.77349074,134.8525032,1.572,加古川,日岡,１種,自動(甲),単線
近統(神戸),加古川保線区,西脇保線管理室,加古川市,大野20号線,兵庫県加古川市加古川町大野字穴バリ388-2,近畿,兵庫,加古川線,日岡第四,ひおかだいよん,34.77579868,134.8546208,1.894,加古川,日岡,１種,自動(甲),単線
近統(神戸),加古川保線区,西脇保線管理室,加古川市,大野平野線,兵庫県加古川市加古川町大野字イトミ203-4,近畿,兵庫,加古川線,日岡,ひおか,34.77752217,134.8561799,2.131,加古川,日岡,１種,自動(甲),単線
近統(神戸),加古川保線区,西脇保線管理室,加古川市,日岡刑務所線,兵庫県加古川市加古川町大野字早瀬1155-3,近畿,兵庫,加古川線,大野西,おおのにし,34.77926162,134.8578001,2.373,日岡,神野,１種,自動(甲),単線
近統(神戸),加古川保線区,西脇保線管理室,加古川市,大野西条線,兵庫県加古川市加古川町大野字大町50-2,近畿,兵庫,加古川線,宮ノ下,みやのした,34.78050569,134.8590729,2.543,日岡,神野,１種,自動(甲),単線
近統(神戸),加古川保線区,西脇保線管理室,西日本旅客鉄,鉄道用地,兵庫県加古川市神野町西ノ山字迎野248-2,近畿,兵庫,加古川線,釣橋,つりばし,34.78550002,134.8664236,3.429,日岡,神野,１種,自動(甲),単線
近統(神戸),加古川保線区,西脇保線管理室,加古川市,神野団地線,兵庫県加古川市神野町神野字茶ノ木1648-3,近畿,兵庫,加古川線,神野第一,かんのだいいち,34.78995541,134.8725488,4.195,日岡,神野,１種,自動(甲),単線
近統(神戸),加古川保線区,西脇保線管理室,加古川市,新神野西条線,兵庫県加古川市神野町下西条字渡り上り146-3,近畿,兵庫,加古川線,神野第二,かんのだいに,34.79056709,134.8762811,4.544,日岡,神野,１種,自動(甲),単線
近統(神戸),加古川保線区,西脇保線管理室,加古川市,西条2号線,兵庫県加古川市神野町西条字中川原610-2,近畿,兵庫,加古川線,神野駅西,かんのえきにし,34.79087978,134.8782571,4.729,日岡,神野,１種,自動(甲),単線
近統(神戸),加古川保線区,西脇保線管理室,加古川市,西条6号線,兵庫県加古川市神野町下西条字山崎804-9,近畿,兵庫,加古川線,下西条,しもさいじょう,34.79137048,134.8826648,5.137,神野,厄神,１種,自動(甲),単線
近統(神戸),加古川保線区,西脇保線管理室,加古川市,神野団地線,兵庫県加古川市神野町下西条字山崎763,近畿,兵庫,加古川線,神野第三,かんのだいさん,0,0,5.259,神野,厄神,１種,自動(甲),単線
近統(神戸),加古川保線区,西脇保線管理室,兵庫県,八幡別府線,兵庫県加古川市八幡町中西条字城山930-2,近畿,兵庫,加古川線,中西条,なかさいじょう,0,0,5.565,神野,厄神,１種,自動(甲),単線
近統(神戸),加古川保線区,西脇保線管理室,加古川市,中西条3号線,兵庫県加古川市八幡町中西条字岩ノ上906-2,近畿,兵庫,加古川線,平松,ひらまつ,0,0,5.723,神野,厄神,１種,自動(甲),単線
近統(神戸),加古川保線区,西脇保線管理室,加古川市,中西条5号線,兵庫県加古川市八幡町中西条字古川通り839,近畿,兵庫,加古川線,中西条第一,なかさいじょうだいいち,0,0,6.069,神野,厄神,１種,自動(甲),単線
近統(神戸),加古川保線区,西脇保線管理室,加古川市,里道,兵庫県加古川市八幡町中西条字外開719-4,近畿,兵庫,加古川線,中西条第二,なかさいじょうだいに,0,0,6.506,神野,厄神,１種,自動(甲),単線
近統(神戸),加古川保線区,西脇保線管理室,兵庫県,神戸加古川姫路線,兵庫県加古川市八幡町上西条字開1073-3,近畿,兵庫,加古川線,上西条,かみさいじょう,0,0,6.868,神野,厄神,１種,自動(甲),単線
近統(神戸),加古川保線区,西脇保線管理室,加古川市,船町4号線,兵庫県加古川市八幡町船町字辻外165-2,近畿,兵庫,加古川線,船町第二,ふなまちだいに,0,0,7.352,神野,厄神,１種,自動(甲),単線
近統(神戸),加古川保線区,西脇保線管理室,兵庫県,加古川小野線,兵庫県加古川市上荘町国包字土堤外846,近畿,兵庫,加古川線,国包,くにかね,0,0,7.937,厄神,市場,１種,自動(甲),単線
近統(神戸),加古川保線区,西脇保線管理室,加古川市,井ノ口5号線,兵庫県加古川市上荘町井之口字南浦434-2,近畿,兵庫,加古川線,井之口第一,いのくちだいいち,0,0,8.282,厄神,市場,１種,自動(甲),単線
近統(神戸),加古川保線区,西脇保線管理室,加古川市,里道,兵庫県加古川市上荘町井之口字山茶前312-2,近畿,兵庫,加古川線,井之口第二,いのくちだいに,0,0,8.678,厄神,市場,１種,自動(甲),単線
近統(神戸),加古川保線区,西脇保線管理室,西日本旅客鉄,鉄道用地,兵庫県加古川市上荘町井之口字堀垣内331-2,近畿,兵庫,加古川線,井之口,いのくち,0,0,8.871,厄神,市場,１種,自動(甲),単線
近統(神戸),加古川保線区,西脇保線管理室,加古川市,井ノ口5号線,兵庫県加古川市上荘町井之口字上条135-2,近畿,兵庫,加古川線,井之口第三,いのくちだいさん,0,0,9.055,厄神,市場,１種,自動(甲),単線
近統(神戸),加古川保線区,西脇保線管理室,小野市,里道,兵庫県小野市黍田町黍田字岡ノ垣内537-1,近畿,兵庫,加古川線,黍田第一,きびただいいち,0,0,11.157,厄神,市場,１種,自動(甲),単線
近統(神戸),加古川保線区,西脇保線管理室,兵庫県,平荘市場線,兵庫県小野市黍田町黍田字屋敷田664-2,近畿,兵庫,加古川線,黍田第三,きびただいさん,0,0,11.691,市場,小野町,１種,自動(甲),単線
近統(神戸),加古川保線区,西脇保線管理室,小野市,123号線,兵庫県小野市下来住町字下野723-2,近畿,兵庫,加古川線,黍田第四,きびただいよん,0,0,12.528,市場,小野町,１種,自動(甲),単線
近統(神戸),加古川保線区,西脇保線管理室,小野市,3121号線,兵庫県小野市下来住町字田中前883-2,近畿,兵庫,加古川線,中村第一,なかむらだいいち,0,0,13.233,市場,小野町,１種,自動(甲),単線
近統(神戸),加古川保線区,西脇保線管理室,小野市,124号線,兵庫県小野市下来住町字田中前940-2,近畿,兵庫,加古川線,中村第二,なかむらだいに,0,0,13.564,市場,小野町,１種,自動(甲),単線
近統(神戸),加古川保線区,西脇保線管理室,小野市,3119号線,兵庫県小野市下来住町字松ヶ内965-3,近畿,兵庫,加古川線,中村第三,なかむらだいさん,0,0,13.75,小野町,粟生,１種,自動(甲),単線
近統(神戸),加古川保線区,西脇保線管理室,小野市,3112号線,兵庫県小野市下来住町字屋形1194-3,近畿,兵庫,加古川線,高田,たかた,0,0,14.078,小野町,粟生,１種,自動(甲),単線
近統(神戸),加古川保線区,西脇保線管理室,小野市,里道,兵庫県小野市下来住町字深田749-2,近畿,兵庫,加古川線,深田,ふかた,0,0,14.506,小野町,粟生,１種,自動(甲),単線
近統(神戸),加古川保線区,西脇保線管理室,小野市,3106号線,兵庫県小野市下来住町字三反田890-2,近畿,兵庫,加古川線,船本第一,ふなもとだいいち,0,0,14.825,小野町,粟生,１種,自動(甲),単線
近統(神戸),加古川保線区,西脇保線管理室,兵庫県,小野香寺線,兵庫県小野市阿形町字山林下320-2,近畿,兵庫,加古川線,西脇,にしわき,0,0,15.995,小野町,粟生,１種,自動(甲),単線
近統(神戸),加古川保線区,西脇保線管理室,小野市,125号線,兵庫県小野市栗生町字嶋田1714-5,近畿,兵庫,加古川線,嶋,しま,0,0,16.729,粟生,河合西,１種,自動(甲),単線
近統(神戸),加古川保線区,西脇保線管理室,小野市,230号線,兵庫県小野市栗生町字栗生城1195-3,近畿,兵庫,加古川線,森岡,もりおか,0,0,17.057,粟生,河合西,１種,自動(甲),単線
近統(神戸),加古川保線区,西脇保線管理室,小野市,里道,兵庫県小野市栗生町字アラゴ1011-2,近畿,兵庫,加古川線,丁田,ちょうだ,0,0,17.283,粟生,河合西,１種,自動(甲),単線
近統(神戸),加古川保線区,西脇保線管理室,兵庫県,三木宍粟線,兵庫県小野市栗生町字田井814,近畿,兵庫,加古川線,粟島,あわしま,0,0,17.384,粟生,河合西,１種,自動(甲),単線
近統(神戸),加古川保線区,西脇保線管理室,小野市,2207号線,兵庫県小野市栗生町字北条376-3,近畿,兵庫,加古川線,北条第二,ほうじょうだいに,0,0,17.627,粟生,河合西,１種,自動(甲),単線
近統(神戸),加古川保線区,西脇保線管理室,小野市,2208号線,兵庫県小野市栗生町字高堰425-2,近畿,兵庫,加古川線,池向,いけむかい,0,0,17.804,粟生,河合西,１種,自動(甲),単線
近統(神戸),加古川保線区,西脇保線管理室,小野市,128号線,兵庫県小野市三和町字カト川569-6,近畿,兵庫,加古川線,西森,にしもり,0,0,18.227,粟生,河合西,１種,自動(甲),単線
近統(神戸),加古川保線区,西脇保線管理室,小野市,236号線,兵庫県小野市三和町字畑ノ下777-2,近畿,兵庫,加古川線,中島,なかじま,0,0,18.655,粟生,河合西,１種,自動(甲),単線
近統(神戸),加古川保線区,西脇保線管理室,小野市,2236号線,兵庫県小野市新部町字仲田938-4,近畿,兵庫,加古川線,中田,なかた,0,0,18.876,粟生,河合西,１種,自動(甲),単線
近統(神戸),加古川保線区,西脇保線管理室,小野市,2239号線,兵庫県小野市新部町字西久保田645-5,近畿,兵庫,加古川線,河合西,かわいにし,0,0,19.223,河合西,青野ケ原,１種,自動(甲),単線
近統(神戸),加古川保線区,西脇保線管理室,小野市,2242号線,兵庫県小野市新部町字力万468-2,近畿,兵庫,加古川線,力万表,りきまんおもて,0,0,19.47,河合西,青野ケ原,１種,自動(甲),単線
近統(神戸),加古川保線区,西脇保線管理室,小野市,2252号線,兵庫県小野市河合西町字城成281-1,近畿,兵庫,加古川線,西村南,にしむらみなみ,0,0,19.721,河合西,青野ケ原,１種,自動(甲),単線
近統(神戸),加古川保線区,西脇保線管理室,小野市,231号線,兵庫県小野市河合西町字阿東27-2,近畿,兵庫,加古川線,西村,にしむら,0,0,19.949,河合西,青野ケ原,１種,自動(甲),単線
近統(神戸),加古川保線区,西脇保線管理室,小野市,2260号線,兵庫県小野市河合中町字都宿垣内1045-2,近畿,兵庫,加古川線,矢松,やまつ,0,0,20.479,河合西,青野ケ原,１種,自動(甲),単線
近統(神戸),加古川保線区,西脇保線管理室,小野市,里道,兵庫県小野市河合中町字大木770-2,近畿,兵庫,加古川線,トネガ池,とねがいけ,0,0,20.7,河合西,青野ケ原,１種,自動(甲),単線
近統(神戸),加古川保線区,西脇保線管理室,小野市,2262号線,兵庫県小野市河合中町字中座901-7,近畿,兵庫,加古川線,番門,ばんもん,0,0,21.196,河合西,青野ケ原,１種,自動(甲),単線
近統(神戸),加古川保線区,西脇保線管理室,小野市,2263号線,兵庫県小野市復井町字十郎363-3,近畿,兵庫,加古川線,十郎,じゆうろう,0,0,21.532,青野ケ原,社町,１種,自動(甲),単線
近統(神戸),加古川保線区,西脇保線管理室,小野市,232号線,兵庫県小野市復井町字カワラヤ1295-3,近畿,兵庫,加古川線,大門廠舎正門,だいもんしょうしゃせいもん,0,0,21.925,青野ケ原,社町,１種,自動(甲),単線
近統(神戸),加古川保線区,西脇保線管理室,小野市,里道,兵庫県小野市復井町字西ノ澤1573-2,近畿,兵庫,加古川線,大門廠舎裏門,だいもんしょうしゃうらもん,0,0,22.466,青野ケ原,社町,１種,自動(甲),単線
近統(神戸),加古川保線区,西脇保線管理室,加東市,高岡河高線,兵庫県加東市河高字オケ谷2960-2,近畿,兵庫,加古川線,安取,あつとり,0,0,23.426,青野ケ原,社町,１種,自動(甲),単線
近統(神戸),加古川保線区,西脇保線管理室,加東市,南小学校南線,兵庫県加東市河高オケ谷2954-2,近畿,兵庫,加古川線,安取北坂,あつとりきたざか,0,0,23.505,青野ケ原,社町,１種,自動(甲),単線
近統(神戸),加古川保線区,西脇保線管理室,加東市,河高大谷線,兵庫県加東市河高字下ノ池2459-2,近畿,兵庫,加古川線,社,やしろ,0,0,24.263,社町,滝野,１種,自動(甲),単線
近統(神戸),加古川保線区,西脇保線管理室,加東市,河高西2号線,兵庫県加東市河高字上ノ池尻1924-2,近畿,兵庫,加古川線,河高第二,こうだかだいに,0,0,24.633,社町,滝野,１種,自動(甲),単線
近統(神戸),加古川保線区,西脇保線管理室,その他,里道,兵庫県加東市河高字西坂1481-2,近畿,兵庫,加古川線,河高第三,こうだかだいさん,0,0,24.948,社町,滝野,１種,自動(甲),単線
近統(神戸),加古川保線区,西脇保線管理室,加東市,河高片山線,兵庫県加東市河高字西ノ前1256-2,近畿,兵庫,加古川線,宇仁谷,うにだに,0,0,25.224,社町,滝野,１種,自動(甲),単線
近統(神戸),加古川保線区,西脇保線管理室,河高地区,農道,兵庫県加東市河高字御茶山658-3,近畿,兵庫,加古川線,御茶山,おちゃやま,0,0,25.55,社町,滝野,１種,自動(甲),単線
近統(神戸),加古川保線区,西脇保線管理室,河高地区,農道,兵庫県加東市河高字中川原63-5,近畿,兵庫,加古川線,焼山,やきやま,0,0,25.823,社町,滝野,１種,自動(甲),単線
近統(神戸),加古川保線区,西脇保線管理室,下滝野地区,農道,兵庫県加東市下滝野字林之元137-2,近畿,兵庫,加古川線,厄神道,やくじんみち,0,0,26.251,社町,滝野,１種,自動(甲),単線
近統(神戸),加古川保線区,西脇保線管理室,加東市,下滝野西線,兵庫県加東市下滝野字下之山913-2,近畿,兵庫,加古川線,国正,くにまさ,0,0,26.64,社町,滝野,１種,自動(甲),単線
近統(神戸),加古川保線区,西脇保線管理室,加東市,下滝野区画10号線,兵庫県加東市下滝野字行里1032-2,近畿,兵庫,加古川線,西村第二,にしむらだいに,0,0,26.881,社町,滝野,１種,自動(甲),単線
近統(神戸),加古川保線区,西脇保線管理室,加東市,光明寺駐車場線,兵庫県加東市下滝野字八之坪1221-2,近畿,兵庫,加古川線,光明寺道,こうみょうじみち,0,0,27.165,社町,滝野,１種,自動(甲),単線
近統(神戸),加古川保線区,西脇保線管理室,上滝野地区,農道,兵庫県加東市上滝野字三反郷893-3,近畿,兵庫,加古川線,上滝野,かみたきの,0,0,27.451,滝野,滝,１種,自動(甲),単線
近統(神戸),加古川保線区,西脇保線管理室,加東市,春日線,兵庫県加東市上滝野字梅田849-2,近畿,兵庫,加古川線,宮前Ａ,みやまえ,0,0,27.677,滝野,滝,１種,自動(甲),単線
近統(神戸),加古川保線区,西脇保線管理室,上滝野地区,農道,兵庫県加東市上滝野字滝之端618-2,近畿,兵庫,加古川線,上滝町,かみたきちょう,0,0,27.818,滝野,滝,１種,自動(甲),単線
近統(神戸),加古川保線区,西脇保線管理室,加東市,大歳線,兵庫県加東市上滝野字大歳323-2,近畿,兵庫,加古川線,変電所,へんでんしょ,0,0,28.041,滝野,滝,１種,自動(甲),単線
近統(神戸),加古川保線区,西脇保線管理室,兵庫県,市場多井田線,兵庫県加東市上滝野字芝崎248-2,近畿,兵庫,加古川線,大谷,おおたに,0,0,28.223,滝野,滝,１種,自動(甲),単線
近統(神戸),加古川保線区,西脇保線管理室,加東市,滝野北線,兵庫県加東市上滝野字西長瀬185-2,近畿,兵庫,加古川線,滝,たき,0,0,28.488,滝,西脇市,１種,自動(甲),単線
近統(神戸),加古川保線区,西脇保線管理室,西脇市,板波12号線,兵庫県西脇市板波町字三高710-8,近畿,兵庫,加古川線,板波,いたば,0,0,29.903,滝,西脇市,１種,自動(甲),単線
近統(神戸),加古川保線区,西脇保線管理室,西脇市,里道,兵庫県西脇市板波町字西池町468-2,近畿,兵庫,加古川線,板波墓道,いたばはかみち,0,0,30.334,滝,西脇市,１種,自動(甲),単線
近統(神戸),加古川保線区,西脇保線管理室,西脇市,板波野村線,兵庫県西脇市板波町字中垣内598-2,近畿,兵庫,加古川線,板波第二,いたばだいに,0,0,30.457,滝,西脇市,１種,自動(甲),単線
近統(神戸),加古川保線区,西脇保線管理室,西脇市,板波1号線,兵庫県西脇市板波町字北垣内574-2,近畿,兵庫,加古川線,板波第三,いたばだいさん,0,0,30.608,滝,西脇市,１種,自動(甲),単線
近統(神戸),加古川保線区,西脇保線管理室,兵庫県,西脇八千代市川線,兵庫県西脇市野村町字薬師ノ下857-2,近畿,兵庫,加古川線,野村第二,のむらだいに,0,0,31.075,滝,西脇市,１種,自動(甲),単線
近統(神戸),加古川保線区,西脇保線管理室,西脇市,野村西工線,兵庫県西脇市野村町字八幡垣内1006-2,近畿,兵庫,加古川線,野村第三,のむらだいさん,0,0,31.368,西脇市,新西脇,１種,自動(甲),単線
近統(神戸),加古川保線区,西脇保線管理室,兵庫県,西脇三田線,兵庫県西脇市野村町字八幡垣内1054-2,近畿,兵庫,加古川線,野村,のむら,0,0,31.562,西脇市,新西脇,１種,自動(甲),単線
近統(神戸),加古川保線区,西脇保線管理室,兵庫県,和布西脇線,兵庫県西脇市和布町字山根110-2,近畿,兵庫,加古川線,和布第一,わふだいいち,0,0,32.18,西脇市,新西脇,１種,自動(甲),単線
近統(神戸),加古川保線区,西脇保線管理室,兵庫県,黒田庄多井田線,兵庫県西脇市堀町字前山199-10,近畿,兵庫,加古川線,和布第二,わふだいに,0,0,32.56,新西脇,比延,１種,自動(甲),単線
近統(神戸),加古川保線区,西脇保線管理室,西脇市,里道,兵庫県西脇市堀町字東河原184-3,近畿,兵庫,加古川線,堀,ほり,0,0,33.351,新西脇,比延,１種,自動(甲),単線
近統(神戸),加古川保線区,西脇保線管理室,西脇市,里道,兵庫県西脇市堀町字東河原192-2,近畿,兵庫,加古川線,高島第一,たかしまだいいち,0,0,33.63,新西脇,比延,１種,自動(甲),単線
近統(神戸),加古川保線区,西脇保線管理室,西脇市,高島2号線,兵庫県西脇市高島町字山添239-2,近畿,兵庫,加古川線,高島第三,たかしまだいさん,0,0,33.745,新西脇,比延,１種,自動(甲),単線
近統(神戸),加古川保線区,西脇保線管理室,西脇市,鹿野比延1号線,兵庫県西脇市鹿野町字中ノ垣内430-5,近畿,兵庫,加古川線,下比延,しもひえ,0,0,34.239,新西脇,比延,１種,自動(甲),単線
近統(神戸),加古川保線区,西脇保線管理室,兵庫県,黒田庄多井田線,兵庫県西脇市鹿野町字五明449-4,近畿,兵庫,加古川線,下比延第二,しもひえだいに,0,0,34.376,新西脇,比延,１種,自動(甲),単線
近統(神戸),加古川保線区,西脇保線管理室,西脇市,嶋上比延線,兵庫県西脇市比延町字西川原397-2,近畿,兵庫,加古川線,比延,ひえ,0,0,35.204,比延,日本へそ公園,１種,自動(甲),単線
近統(神戸),加古川保線区,西脇保線管理室,西脇市,上比延津万井線,兵庫県西脇市黒田庄町福地字百合661-37,近畿,兵庫,加古川線,上比延,かみひえ,0,0,36.704,日本へそ公園,黒田庄,１種,自動(甲),単線
近統(神戸),加古川保線区,西脇保線管理室,西脇市,福地1号線,兵庫県西脇市黒田庄町福地字島田610-2,近畿,兵庫,加古川線,福地,ふくぢ,0,0,37.218,日本へそ公園,黒田庄,１種,自動(甲),単線
近統(神戸),加古川保線区,西脇保線管理室,西脇市,福地5号線,兵庫県西脇市黒田庄町福地字大田358-2,近畿,兵庫,加古川線,大田,おおた,0,0,37.475,日本へそ公園,黒田庄,１種,自動(甲),単線
近統(神戸),加古川保線区,西脇保線管理室,西脇市,岡福地線,兵庫県西脇市黒田庄町福地字北張田315-2,近畿,兵庫,加古川線,上福地,かみふくぢ,0,0,37.569,日本へそ公園,黒田庄,１種,自動(甲),単線
近統(神戸),加古川保線区,西脇保線管理室,西脇市,岡26号線,兵庫県西脇市黒田庄町岡字出口831-2,近畿,兵庫,加古川線,下岡,しもおか,0,0,37.958,日本へそ公園,黒田庄,１種,自動(甲),単線
近統(神戸),加古川保線区,西脇保線管理室,兵庫県,門柳大門線,兵庫県西脇市黒田庄町岡字二ノ門385-2,近畿,兵庫,加古川線,岡,おか,0,0,38.667,黒田庄,本黒田,１種,自動(甲),単線
近統(神戸),加古川保線区,西脇保線管理室,西脇市,岡1号線,兵庫県西脇市黒田庄町岡字二ノ門377-15,近畿,兵庫,加古川線,宮前Ｂ,みやまえ,0,0,38.765,黒田庄,本黒田,１種,自動(甲),単線
近統(神戸),加古川保線区,西脇保線管理室,西脇市,喜多20号線,兵庫県西脇市黒田庄町喜多字東所242-2,近畿,兵庫,加古川線,喜多第一,きただいいち,0,0,39,黒田庄,本黒田,１種,自動(甲),単線
近統(神戸),加古川保線区,西脇保線管理室,西脇市,喜多城山線,兵庫県西脇市黒田庄町喜多字出栗337-2,近畿,兵庫,加古川線,喜多第二,きただいに,0,0,39.152,黒田庄,本黒田,１種,自動(甲),単線
近統(神戸),加古川保線区,西脇保線管理室,西脇市,里道,兵庫県西脇市黒田庄町喜多字東天神546-4,近畿,兵庫,加古川線,喜多第三,きただいさん,0,0,39.319,黒田庄,本黒田,１種,自動(甲),単線
近統(神戸),加古川保線区,西脇保線管理室,西脇市,前坂喜多大門線,兵庫県西脇市黒田庄町喜多字下曽根937-3,近畿,兵庫,加古川線,前坂,まえさか,0,0,40.016,黒田庄,本黒田,１種,自動(甲),単線
近統(神戸),加古川保線区,西脇保線管理室,西脇市,前坂38号線,兵庫県西脇市黒田庄町喜多字置土居1028-2,近畿,兵庫,加古川線,前坂第二,まえさかだいに,0,0,40.297,黒田庄,本黒田,１種,自動(甲),単線
近統(神戸),加古川保線区,西脇保線管理室,西脇市,前坂5号線,兵庫県西脇市黒田庄町前坂字中島1000-2,近畿,兵庫,加古川線,前坂第四,まえさかだいよん,0,0,40.714,黒田庄,本黒田,１種,自動(甲),単線
近統(神戸),加古川保線区,西脇保線管理室,兵庫県,本黒田停車場線,兵庫県西脇市黒田庄町前坂字山端1071-2,近畿,兵庫,加古川線,山鼻,やまはな,0,0,41.229,黒田庄,本黒田,１種,自動(甲),単線
近統(神戸),加古川保線区,西脇保線管理室,西脇市,黒田4号線,兵庫県西脇市黒田庄町黒田字大年ノ本149-14,近畿,兵庫,加古川線,西,にし,0,0,41.701,黒田庄,本黒田,１種,自動(甲),単線
近統(神戸),加古川保線区,西脇保線管理室,西脇市,黒田田高線,兵庫県西脇市黒田庄町黒田字西内1114-2,近畿,兵庫,加古川線,黒田,くろだ,0,0,42.152,本黒田,船町口,１種,自動(甲),単線
近統(神戸),加古川保線区,西脇保線管理室,兵庫県,黒田庄多井田線,兵庫県西脇市黒田庄町黒田字柏木谷1581-42,近畿,兵庫,加古川線,大坪,おおつぼ,0,0,43.006,本黒田,船町口,１種,自動(甲),単線
近統(神戸),加古川保線区,西脇保線管理室,西脇市,里道,兵庫県西脇市黒田庄町船町字川東706-2,近畿,兵庫,加古川線,段,だん,0,0,43.477,本黒田,船町口,１種,自動(甲),単線
近統(神戸),加古川保線区,西脇保線管理室,西脇市,小苗11号線,兵庫県西脇市黒田庄町小苗字前山587-43,近畿,兵庫,加古川線,前山,まえやま,0,0,44.295,船町口,久下村,１種,自動(甲),単線
近統(神戸),加古川保線区,西脇保線管理室,西脇市,小苗10号線,兵庫県西脇市黒田庄町小苗字前田109-2,近畿,兵庫,加古川線,小苗第二,こなえだいに,0,0,44.517,船町口,久下村,１種,自動(甲),単線
近統(神戸),加古川保線区,西脇保線管理室,兵庫県,山南多可線,兵庫県西脇市黒田庄町小苗字大森585-27,近畿,兵庫,加古川線,小苗,こなえ,0,0,45.638,船町口,久下村,１種,自動(甲),単線
近統(神戸),加古川保線区,西脇保線管理室,丹波市,谷川野田学校線,兵庫県丹波市山南町谷川字野田775-2,近畿,兵庫,加古川線,桜の木,さくらのき,0,0,46.126,船町口,久下村,１種,自動(甲),単線
近統(神戸),加古川保線区,西脇保線管理室,兵庫県,篠山山南線,兵庫県丹波市山南町谷川字柳ノ本571-3,近畿,兵庫,加古川線,久下村,くげむら,0,0,46.461,久下村,谷川,１種,自動(甲),単線
近統(神戸),加古川保線区,西脇保線管理室,丹波市,里道,兵庫県丹波市山南町谷川字柳ノ本528-2,近畿,兵庫,加古川線,谷川,たにがわ,0,0,46.62,久下村,谷川,１種,自動(甲),単線
近統(神戸),加古川保線区,西脇保線管理室,丹波市,谷川金屋岡本線,兵庫県丹波市山南町谷川字北ノ下361-2,近畿,兵庫,加古川線,金屋,かねや,0,0,46.906,久下村,谷川,１種,自動(甲),単線
近統(神戸),加古川保線区,西脇保線管理室,丹波市,里道,兵庫県丹波市山南町谷川字下井217-5,近畿,兵庫,加古川線,下井,しもい,0,0,47.123,久下村,谷川,１種,自動(甲),単線
近統(神戸),加古川保線区,西脇保線管理室,丹波市,谷川金屋岡本線,兵庫県丹波市山南町岡本字北条183-2,近畿,兵庫,加古川線,岡本第一,おかもとだいいち,0,0,47.659,久下村,谷川,１種,自動(甲),単線
近統(神戸),加古川保線区,西明石保線管理室,JR西,JR管理道,兵庫県明石市小久保南畑120-25,近畿,兵庫,山陽列車線,南畑,みなみはた,0,0,23.174,西明石,大久保,１種,自動(甲),５線以上
近統(神戸),加古川保線区,西明石保線管理室,明石市,藤江23号線,兵庫県明石市藤江字三ツ池981-1,近畿,兵庫,山陽列車線,中谷第一,なかたにだいいち,0,0,23.674,西明石,大久保,１種,自動(甲),複線
近統(神戸),加古川保線区,加古川保線管理室,明石市,藤江35号線,兵庫県明石市大久保町森田字宅地148-2,近畿,兵庫,山陽列車線,村南第一,むらみなみだいいち,0,0,24.092,西明石,大久保,１種,自動(甲),複線
近統(神戸),加古川保線区,加古川保線管理室,明石市,大久保42号線,兵庫県明石市大久保町大久保町宮の先955-2,近畿,兵庫,山陽列車線,宮の先第一,みやのさきだいいち,0,0,24.408,西明石,大久保,１種,自動(甲),複線
近統(神戸),加古川保線区,加古川保線管理室,明石市,里道,兵庫県明石市大久保町大久保町宮の先914-3,近畿,兵庫,山陽列車線,宮の先第三,みやのさきだいさん,0,0,24.597,西明石,大久保,１種,自動(甲),複線
近統(神戸),加古川保線区,加古川保線管理室,明石市,大久保16号線,兵庫県明石市大久保町大久保町字板額309-5,近畿,兵庫,山陽列車線,板額,ばんがく,0,0,25.162,西明石,大久保,１種,自動(甲),複線
近統(神戸),加古川保線区,加古川保線管理室,明石市,里道,兵庫県明石市魚住町金ヶ崎字芦谷164-2,近畿,兵庫,山陽列車線,巳野池,みのいけ,0,0,27.013,大久保,魚住,１種,自動(甲),複線
近統(神戸),加古川保線区,加古川保線管理室,明石市,魚住6号線,兵庫県明石市魚住町金ヶ崎字永長626-2,近畿,兵庫,山陽列車線,野路東,のじひがし,0,0,27.393,大久保,魚住,１種,自動(甲),複線
近統(神戸),加古川保線区,加古川保線管理室,明石市,魚住41号線,兵庫県明石市魚住町長坂寺字五反田442,近畿,兵庫,山陽列車線,東谷上,ひがしたにがみ,0,0,27.993,大久保,魚住,１種,自動(甲),複線
近統(神戸),加古川保線区,加古川保線管理室,明石市,魚住14号線,兵庫県明石市魚住町長坂寺字越前259-4,近畿,兵庫,山陽列車線,地西,じにし,0,0,28.378,大久保,魚住,１種,自動(甲),複線
近統(神戸),加古川保線区,加古川保線管理室,兵庫県,岩岡魚住線,兵庫県明石市魚住町中尾字新田609,近畿,兵庫,山陽列車線,向山西,むかいやまにし,0,0,28.694,大久保,魚住,１種,自動(甲),複線
近統(神戸),加古川保線区,加古川保線管理室,明石市,魚住19号線,兵庫県明石市魚住町西岡字アタマ503-18,近畿,兵庫,山陽列車線,山の神第二,やまのかみだいに,0,0,29.216,魚住,土山,１種,自動(甲),複線
近統(神戸),加古川保線区,加古川保線管理室,明石市,魚住23号線,兵庫県明石市魚住町西岡字山畑502-7,近畿,兵庫,山陽列車線,山の神第四,やまのかみだいよん,0,0,29.452,魚住,土山,１種,自動(甲),複線
近統(神戸),加古川保線区,加古川保線管理室,明石市,魚住25号線,兵庫県明石市魚住町西岡字戊ノ方谷2177-4,近畿,兵庫,山陽列車線,猪之方谷第一,いのこだにだいいち,0,0,30.165,魚住,土山,１種,自動(甲),複線
近統(神戸),加古川保線区,加古川保線管理室,明石市,二見27号線,兵庫県明石市二見町福里字高野161-1,近畿,兵庫,山陽列車線,向川第一,むかいがわだいいち,0,0,30.979,魚住,土山,１種,自動(甲),複線
近統(神戸),加古川保線区,加古川保線管理室,明石市,二見5号線,兵庫県明石市二見町福里字大道里320-2,近畿,兵庫,山陽列車線,大道里第二,だいどうさとだいに,0,0,31.214,魚住,土山,１種,自動(甲),複線
近統(神戸),加古川保線区,加古川保線管理室,明石市,二見164号線,兵庫県明石市二見町西二見字中上岡2027-1,近畿,兵庫,山陽列車線,西上岡,にしかみおか,0,0,31.882,魚住,土山,１種,自動(甲),複線
近統(神戸),加古川保線区,加古川保線管理室,兵庫県,別府平岡線,兵庫県播磨町野添字鉄鋳場1701-8,近畿,兵庫,山陽列車線,鉄鋳場,てっちゅうば,0,0,32.325,土山,東加古川,１種,自動(甲),複線
近統(神戸),加古川保線区,加古川保線管理室,加古川市,土山10号線,兵庫県加古川市平岡町土山字南浦978-1,近畿,兵庫,山陽列車線,薬師浦第二,やくしうらだいに,0,0,33.008,土山,東加古川,１種,自動(甲),複線
近統(神戸),加古川保線区,加古川保線管理室,加古川市,土山20号線,兵庫県加古川市平岡町土山字勝負881-3,近畿,兵庫,山陽列車線,勝負中,しょうぶなか,0,0,33.323,土山,東加古川,１種,自動(甲),複線
近統(神戸),加古川保線区,加古川保線管理室,加古川市,高畑土山線,兵庫県加古川市平岡町土山字勝負853-2,近畿,兵庫,山陽列車線,勝負下,しょうぶした,0,0,33.524,土山,東加古川,１種,自動(甲),複線
近統(神戸),加古川保線区,加古川保線管理室,加古川市,高畑5号線,兵庫県加古川市平岡町高畑字馬場田686-3,近畿,兵庫,山陽列車線,馬場田三,ばばださん,0,0,33.934,土山,東加古川,１種,自動(甲),複線
近統(神戸),加古川保線区,加古川保線管理室,兵庫県,野谷平岡線,兵庫県加古川市平岡町高畑字長林820-4,近畿,兵庫,山陽列車線,長ヶ林東,ちょうがばやしひがし,0,0,34.198,土山,東加古川,１種,自動(甲),複線
近統(神戸),加古川保線区,加古川保線管理室,加古川市,西谷和田線,兵庫県加古川市平岡町西谷字大割26-2,近畿,兵庫,山陽列車線,大割上,おおわりかみ,0,0,34.825,土山,東加古川,１種,自動(甲),複線
近統(神戸),加古川保線区,加古川保線管理室,加古川市,新在家野辻線,兵庫県加古川市平岡町新在家字上戸手1567-8,近畿,兵庫,山陽列車線,上土堤一,かみどていち,0,0,35.368,土山,東加古川,１種,自動(甲),複線
近統(神戸),加古川保線区,加古川保線管理室,加古川市,新在家区画道路12号線,兵庫県加古川市平岡町新在家字広畑823-2,近畿,兵庫,山陽列車線,広畑東,ひろはたひがし,0,0,36.119,東加古川,加古川,１種,自動(甲),複線
近統(神戸),加古川保線区,加古川保線管理室,加古川市,野口18号線,兵庫県加古川市野口町野口字大坪305-9,近畿,兵庫,山陽列車線,宮東第一,みやひがしだいいち,0,0,36.542,東加古川,加古川,１種,自動(甲),複線
近統(神戸),加古川保線区,加古川保線管理室,加古川市,北野７号線,兵庫県加古川市野口町北野字宮の前352-2,近畿,兵庫,山陽列車線,宮東第三,みやひがしだいさん,0,0,36.823,東加古川,加古川,１種,自動(甲),複線
近統(神戸),加古川保線区,加古川保線管理室,加古川市,野口坂井線,兵庫県加古川市野口町野口字古屋敷416-1,近畿,兵庫,山陽列車線,辻東上,つじひがしかみ,0,0,37.023,東加古川,加古川,１種,自動(甲),複線
近統(神戸),加古川保線区,加古川保線管理室,加古川市,野口12号線,兵庫県加古川市野口町野口字辻の東855-1,近畿,兵庫,山陽列車線,辻東下,つじひがしした,0,0,37.2,東加古川,加古川,１種,自動(甲),複線
近統(神戸),加古川保線区,加古川保線管理室,加古川市,西井ノ口米田線,兵庫県加古川市東神吉町西井之口字出張885-1,近畿,兵庫,山陽列車線,出張中,でばりなか,0,0,41.146,加古川,宝殿,１種,自動(甲),複線
近統(神戸),加古川保線区,加古川保線管理室,加古川市,里道,兵庫県加古川市米田町平津字谷田231-2,近畿,兵庫,山陽列車線,棚田上,たなだかみ,0,0,41.748,加古川,宝殿,１種,自動(甲),複線
近統(神戸),加古川保線区,加古川保線管理室,兵庫県,飾東宝殿停車場線,兵庫県高砂市米田町神瓜字一の坪106-1,近畿,兵庫,山陽列車線,一の坪,いちのつぼ,0,0,42.589,宝殿,曽根,１種,自動(甲),複線
近統(神戸),加古川保線区,加古川保線管理室,高砂市,米田132号線,兵庫県高砂市米田町島字才田47-1,近畿,兵庫,山陽列車線,東川,あずまがわ,0,0,43.001,宝殿,曽根,１種,自動(甲),複線
近統(神戸),加古川保線区,加古川保線管理室,高砂市,米田87号線,兵庫県高砂市阿弥陀町魚橋字壱丁田323-2,近畿,兵庫,山陽列車線,松本西,まつもとにし,0,0,43.648,宝殿,曽根,１種,自動(甲),複線
近統(神戸),加古川保線区,加古川保線管理室,兵庫県,伊保阿弥陀線,兵庫県高砂市阿弥陀町魚橋字茶屋前502-1,近畿,兵庫,山陽列車線,尾の下東,おのしたひがし,0,0,43.941,宝殿,曽根,１種,自動(甲),複線
近統(神戸),加古川保線区,加古川保線管理室,高砂市,中筋魚橋準幹道線,兵庫県高砂市阿弥陀町魚橋字池崎1042-1,近畿,兵庫,山陽列車線,池崎東,いけざきひがし,0,0,44.266,宝殿,曽根,１種,自動(甲),複線
近統(神戸),加古川保線区,加古川保線管理室,高砂市,阿弥陀69号線,兵庫県高砂市阿弥陀町南池字庄境12-1,近畿,兵庫,山陽列車線,向沖東,むかいおきひがし,0,0,44.675,宝殿,曽根,１種,自動(甲),複線
近統(神戸),加古川保線区,加古川保線管理室,高砂市,伊保359号線,兵庫県高砂市阿弥陀町阿弥陀字南出口1365-3,近畿,兵庫,山陽列車線,阿弥陀,あみだ,0,0,45.36,宝殿,曽根,１種,自動(甲),複線
近統(神戸),加古川保線区,加古川保線管理室,高砂市,伊保360号線,兵庫県高砂市阿弥陀町字高尾東1749-2,近畿,兵庫,山陽列車線,高尾東,たかおひがし,0,0,45.563,宝殿,曽根,１種,自動(甲),複線
近統(神戸),加古川保線区,加古川保線管理室,高砂市,伊保362号線,兵庫県高砂市阿弥陀町字寺ノ前2845-2,近畿,兵庫,山陽列車線,村南一,むらみなみいち,0,0,45.757,宝殿,曽根,１種,自動(甲),複線
近統(神戸),加古川保線区,加古川保線管理室,高砂市,阿弥陀128号線,兵庫県高砂市阿弥陀町阿弥陀1丁目2556-2,近畿,兵庫,山陽列車線,金ケ田,かなげだ,34.793637,134.780077,46.748,曽根,ひめじ別所,１種,自動(甲),複線
近統(神戸),加古川保線区,加古川保線管理室,姫路市,別所25号線,兵庫県姫路市別所町小林字法ヶ原337-2,近畿,兵庫,山陽列車線,法華原一,ほっけはらいち,0,0,47.52,曽根,ひめじ別所,１種,自動(甲),複線
近統(神戸),加古川保線区,加古川保線管理室,姫路市,別所103号線,兵庫県姫路市別所町北宿字堂田1126-2,近畿,兵庫,山陽列車線,黒畑上,くろばたかみ,0,0,47.875,曽根,ひめじ別所,１種,自動(甲),複線
近統(神戸),加古川保線区,西明石保線管理室,NO DATA,NO DATA,兵庫県垂水区西舞子2-3-2,近畿,兵庫,山陽電車線,東田上,ひがしたがみ,34.637025,135.030432,15.602,舞子,朝霧,１種,自動(甲),複線
近統(神戸),加古川保線区,西明石保線管理室,神戸市,市道舞子40号線,兵庫県垂水区西舞子5-1-7,近畿,兵庫,山陽電車線,西川下,にしかわしも,0,0,16.186,舞子,朝霧,１種,自動(甲),複線
近統(神戸),加古川保線区,西明石保線管理室,神戸市,市道垂水里461号線,兵庫県垂水区西舞子6丁目,近畿,兵庫,山陽電車線,大谷上甲,おおたにがみこう,34.642752,135.024821,16.705,舞子,朝霧,１種,自動(甲),複線
近統(神戸),神戸保線区,兵庫保線管理室,神戸市,市道西須磨4号線,兵庫県須磨区松風町7-1-8,近畿,兵庫,山陽列車線,一の手西,いちのてにし,0,0,6.397,須磨海浜公園,須磨,１種,自動(甲),４線
近統(神戸),神戸保線区,兵庫保線管理室,神戸市,県道神戸加古川姫路線,兵庫県須磨区行幸2-2-14,近畿,兵庫,山陽列車線,離宮道,りきゅうみち,34.644828,135.121587,6.622,須磨海浜公園,須磨,１種,自動(甲),４線
近統(神戸),神戸保線区,兵庫保線管理室,神戸市,西須磨方面第29号線,兵庫県須磨区須磨浦通り2-1-30,近畿,兵庫,山陽列車線,西天神,にしてんじん,34.643123,135.112963,6.704,須磨海浜公園,須磨,１種,自動(甲),４線
近統(神戸),神戸保線区,兵庫保線管理室,神戸市,西須磨方面第87号線,兵庫県須磨区須磨浦2-3-20,近畿,兵庫,山陽列車線,宿道上,やどのみちうえ,0,0,6.897,須磨海浜公園,須磨,１種,自動(甲),４線
近統(神戸),神戸保線区,兵庫保線管理室,神戸市,西須磨方面第8号線,兵庫県須磨区須磨浦3-3-11,近畿,兵庫,山陽列車線,千守,ちもり,0,0,7.107,須磨海浜公園,須磨,１種,自動(甲),４線
近統(神戸),神戸保線区,兵庫保線管理室,神戸市,その他道路,兵庫県須磨区須磨浦6-1-5,近畿,兵庫,山陽列車線,須磨浦,すまうら,0,0,7.655,須磨,塩屋,１種,自動(甲),４線
近統(神戸),姫路鉄道部,姫路鉄道部工務,姫路市,手柄30号,兵庫県姫路市西延末字加々杭392-11,近畿,兵庫,姫新線,西延末,にしのぶすえ,0,0,1.283,姫路,播磨高岡,１種,自動(甲),単線
近統(神戸),姫路鉄道部,姫路鉄道部工務,姫路市,里道,兵庫県姫路市西延末字胄341-2,近畿,兵庫,姫新線,胄山,かぶとやま,0,0,1.444,姫路,播磨高岡,１種,自動(甲),単線
近統(神戸),姫路鉄道部,姫路鉄道部工務,姫路市,里道,兵庫県姫路市西延末字伏田203-3,近畿,兵庫,姫新線,胄山弐,かぶとやまに,0,0,1.558,姫路,播磨高岡,１種,自動(甲),単線
近統(神戸),姫路鉄道部,姫路鉄道部工務,兵庫県,和久今宿線,兵庫県姫路市西庄字九堀121-3,近畿,兵庫,姫新線,西庄東,にししょうひがし,0,0,1.769,姫路,播磨高岡,１種,自動(甲),単線
近統(神戸),姫路鉄道部,姫路鉄道部工務,兵庫県,和久今宿線,兵庫県姫路市西庄字九堀121-3,近畿,兵庫,姫新線,西庄西,にししょうにし,0,0,1.785,姫路,播磨高岡,１種,自動(甲),単線
近統(神戸),姫路鉄道部,姫路鉄道部工務,姫路市,荒川63号,兵庫県姫路市西庄字九堀154-3,近畿,兵庫,姫新線,八町,はっちょう,0,0,1.903,姫路,播磨高岡,１種,自動(甲),単線
近統(神戸),姫路鉄道部,姫路鉄道部工務,姫路市,荒川14号,兵庫県姫路市土山四丁目630-2,近畿,兵庫,姫新線,前川一,まえかわいち,34.832388,134.669186,2.32,姫路,播磨高岡,１種,自動(甲),単線
近統(神戸),姫路鉄道部,姫路鉄道部工務,姫路市,荒川13号,兵庫県姫路市土山四丁目648-3,近畿,兵庫,姫新線,前川,まえかわ,0,0,2.501,姫路,播磨高岡,１種,自動(甲),単線
近統(神戸),姫路鉄道部,姫路鉄道部工務,兵庫県,田寺今在家線,兵庫県姫路市土山四丁目545-2,近畿,兵庫,姫新線,宮の前（1）,みやのまえ,34.832388,134.669186,2.583,姫路,播磨高岡,１種,自動(甲),単線
近統(神戸),姫路鉄道部,姫路鉄道部工務,姫路市,高岡72号,兵庫県姫路市土山六丁目744-2,近畿,兵庫,姫新線,宮の西,みやのにし,0,0,2.712,姫路,播磨高岡,１種,自動(甲),単線
近統(神戸),姫路鉄道部,姫路鉄道部工務,姫路市,荒川20号,兵庫県姫路市土山七丁目831-3,近畿,兵庫,姫新線,綿所,わたしょ,0,0,2.964,姫路,播磨高岡,１種,自動(甲),単線
近統(神戸),姫路鉄道部,姫路鉄道部工務,姫路市,高岡72号,兵庫県姫路市東今宿三丁目781-4,近畿,兵庫,姫新線,別所,べっしょ,0,0,3.329,姫路,播磨高岡,１種,自動(甲),単線
近統(神戸),姫路鉄道部,姫路鉄道部工務,姫路市,高岡77号,兵庫県姫路市西今宿一丁目626-6,近畿,兵庫,姫新線,縄手の下,なわてのした,0,0,3.677,姫路,播磨高岡,１種,自動(甲),単線
近統(神戸),姫路鉄道部,姫路鉄道部工務,姫路市,高岡15号,兵庫県姫路市下手野字梅ヶ坪374-2,近畿,兵庫,姫新線,手野,ての,0,0,4.493,播磨高岡,余部,１種,自動(甲),単線
近統(神戸),姫路鉄道部,姫路鉄道部工務,姫路市,高岡14号,兵庫県姫路市下手野字内田355-3,近畿,兵庫,姫新線,宮前,みやまえ,0,0,4.602,播磨高岡,余部,１種,自動(甲),単線
近統(神戸),姫路鉄道部,姫路鉄道部工務,姫路市,高岡16号,兵庫県姫路市下手野字内田340-3,近畿,兵庫,姫新線,内田,うちだ,0,0,4.718,播磨高岡,余部,１種,自動(甲),単線
近統(神戸),姫路鉄道部,姫路鉄道部工務,兵庫県,姫路環状線,兵庫県姫路市下手野字向畑786-5,近畿,兵庫,姫新線,向畑,むこうはた,0,0,4.971,播磨高岡,余部,１種,自動(甲),単線
近統(神戸),姫路鉄道部,姫路鉄道部工務,姫路市,白鳥64号,兵庫県姫路市青山字南上野田111-7,近畿,兵庫,姫新線,遠山,とおやま,0,0,5.867,播磨高岡,余部,１種,自動(甲),単線
近統(神戸),姫路鉄道部,姫路鉄道部工務,姫路市,白鳥22号,兵庫県姫路市飾西字下地垣内599-12,近畿,兵庫,姫新線,取手,とりて,0,0,6.267,余部,太市,１種,自動(甲),単線
近統(神戸),姫路鉄道部,姫路鉄道部工務,姫路市,白鳥10号,兵庫県姫路市飾西字川原田439-8,近畿,兵庫,姫新線,川原田,かわはらだ,0,0,6.494,余部,太市,１種,自動(甲),単線
近統(神戸),姫路鉄道部,姫路鉄道部工務,姫路市,里道,兵庫県姫路市飾西字中添496-3,近畿,兵庫,姫新線,中添,なかぞえ,0,0,6.72,余部,太市,１種,自動(甲),単線
近統(神戸),姫路鉄道部,姫路鉄道部工務,姫路市,白鳥88号,兵庫県姫路市飾西字三反長265-3,近畿,兵庫,姫新線,三反長,さんたんちょう,0,0,6.945,余部,太市,１種,自動(甲),単線
近統(神戸),姫路鉄道部,姫路鉄道部工務,姫路市,白鳥379号,兵庫県姫路市飾西字大平745-39,近畿,兵庫,姫新線,長の池,ながのいけ,0,0,7.512,余部,太市,１種,自動(甲),単線
近統(神戸),姫路鉄道部,姫路鉄道部工務,姫路市,里道,兵庫県姫路市飾西字長尾四十町577-3,近畿,兵庫,姫新線,四十町,しじゅうまち,0,0,8.987,余部,太市,１種,自動(甲),単線
近統(神戸),姫路鉄道部,姫路鉄道部工務,姫路市,太市10号,兵庫県姫路市飾西字高田317-6,近畿,兵庫,姫新線,相野,あいの,0,0,9.55,余部,太市,１種,自動(甲),単線
近統(神戸),姫路鉄道部,姫路鉄道部工務,兵庫県,石倉太子線,兵庫県姫路市西脇字構の内444-8,近畿,兵庫,姫新線,西脇,にしわき,0,0,10.048,太市,本竜野,１種,自動(甲),単線
近統(神戸),姫路鉄道部,姫路鉄道部工務,姫路市,太市48号,兵庫県姫路市西脇字構の内428-3,近畿,兵庫,姫新線,学校前,がっこうまえ,0,0,10.202,太市,本竜野,１種,自動(甲),単線
近統(神戸),姫路鉄道部,姫路鉄道部工務,姫路市,里道,兵庫県姫路市西脇字構の内522-5,近畿,兵庫,姫新線,寺西,てらにし,0,0,10.289,太市,本竜野,１種,自動(甲),単線
近統(神戸),姫路鉄道部,姫路鉄道部工務,姫路市,太市13号,兵庫県姫路市西脇字構の内607-2,近畿,兵庫,姫新線,三味,さんまい,0,0,10.532,太市,本竜野,１種,自動(甲),単線
近統(神戸),姫路鉄道部,姫路鉄道部工務,姫路市,太市29号,兵庫県姫路市西脇字池の下810-1,近畿,兵庫,姫新線,新寺門,しんてらもん,0,0,10.67,太市,本竜野,１種,自動(甲),単線
近統(神戸),姫路鉄道部,姫路鉄道部工務,姫路市,太市46号,兵庫県姫路市西脇字鷹の子1582-9,近畿,兵庫,姫新線,丸山,まるやま,0,0,11.535,太市,本竜野,１種,自動(甲),単線
近統(神戸),姫路鉄道部,姫路鉄道部工務,兵庫県,上伊勢誉田線,兵庫県たつの市龍野町未政字向川原249-5,近畿,兵庫,姫新線,林田川,はやしだがわ,0,0,13.745,太市,本竜野,１種,自動(甲),単線
近統(神戸),姫路鉄道部,姫路鉄道部工務,たつの市,里道,兵庫県たつの市龍野町未政字藪下149-3,近畿,兵庫,姫新線,末政,すえまさ,0,0,14.064,太市,本竜野,１種,自動(甲),単線
近統(神戸),姫路鉄道部,姫路鉄道部工務,たつの市,宮脇島田線,兵庫県たつの市龍野町中村字宮川232-4,近畿,兵庫,姫新線,中村第一,なかむらだいいち,0,0,14.481,太市,本竜野,１種,自動(甲),単線
近統(神戸),姫路鉄道部,姫路鉄道部工務,たつの市,里道,兵庫県たつの市龍野町中村字向田256-3,近畿,兵庫,姫新線,中村第二,なかむらだいに,0,0,14.571,太市,本竜野,１種,自動(甲),単線
近統(神戸),姫路鉄道部,姫路鉄道部工務,たつの市,本龍野停車場末政線,兵庫県たつの市龍野町中村字向田284-3,近畿,兵庫,姫新線,中村第三,なかむらだいさん,0,0,14.755,太市,本竜野,１種,自動(甲),単線
近統(神戸),姫路鉄道部,姫路鉄道部工務,兵庫県,姫路上郡線,兵庫県たつの市龍野町日飼字柿本199-3,近畿,兵庫,姫新線,富永,とみなが,0,0,15.343,本竜野,東觜崎,１種,自動(甲),単線
近統(神戸),姫路鉄道部,姫路鉄道部工務,たつの市,片山東中学校前線,兵庫県たつの市龍野町日飼字柿本206-3,近畿,兵庫,姫新線,竜中前,たっちゅうまえ,0,0,15.509,本竜野,東觜崎,１種,自動(甲),単線
近統(神戸),姫路鉄道部,姫路鉄道部工務,たつの市,日飼竜野東中学校線,兵庫県たつの市龍野町日飼字川の上81-5,近畿,兵庫,姫新線,片山,かたやま,0,0,15.817,本竜野,東觜崎,１種,自動(甲),単線
近統(神戸),姫路鉄道部,姫路鉄道部工務,たつの市,里道,兵庫県たつの市龍野町島田字下山根809-2,近畿,兵庫,姫新線,片山第一,かたやまだいいち,0,0,16.116,本竜野,東觜崎,１種,自動(甲),単線
近統(神戸),姫路鉄道部,姫路鉄道部工務,たつの市,島田4号線,兵庫県たつの市龍野町島田字高田345-3,近畿,兵庫,姫新線,高田,たかだ,0,0,16.57,本竜野,東觜崎,１種,自動(甲),単線
近統(神戸),姫路鉄道部,姫路鉄道部工務,たつの市,島田奥村線,兵庫県たつの市龍野町島田字宝満251-5,近畿,兵庫,姫新線,島田第三,しまだだいさん,0,0,16.802,本竜野,東觜崎,１種,自動(甲),単線
近統(神戸),姫路鉄道部,姫路鉄道部工務,たつの市,小那田3号線,兵庫県たつの市神岡町東觜崎字小那田541-4,近畿,兵庫,姫新線,神岡,かみおか,34.881857,134.556395,17.131,本竜野,東觜崎,１種,自動(甲),単線
近統(神戸),姫路鉄道部,姫路鉄道部工務,たつの市,東觜崎2号線,兵庫県たつの市神岡町字大住寺449-3,近畿,兵庫,姫新線,佐用街道,さようかいどう,34.889988,134.558237,18.048,東觜崎,播磨新宮,１種,自動(甲),単線
近統(神戸),姫路鉄道部,姫路鉄道部工務,たつの市,觜崎新宮線,兵庫県たつの市新宮町觜崎字天満445-2,近畿,兵庫,姫新線,揖保川堤防,いぼがわていぼう,34.893933,134.553619,18.723,東觜崎,播磨新宮,１種,自動(甲),単線
近統(神戸),姫路鉄道部,姫路鉄道部工務,たつの市,船渡北村線,兵庫県たつの市新宮町北村字車田71-2,近畿,兵庫,姫新線,北村第二,きたむらだいに,34.897901,134.550644,19.277,東觜崎,播磨新宮,１種,自動(甲),単線
近統(神戸),姫路鉄道部,姫路鉄道部工務,たつの市,北村仙正線,兵庫県たつの市新宮町北村字車田122-3,近畿,兵庫,姫新線,河原,かわはら,34.899099,134.550357,19.413,東觜崎,播磨新宮,１種,自動(甲),単線
近統(神戸),姫路鉄道部,姫路鉄道部工務,たつの市,里道,兵庫県たつの市新宮町北村字車田151-2,近畿,兵庫,姫新線,千原,ちはら,34.900427,134.550112,19.562,東觜崎,播磨新宮,１種,自動(甲),単線
近統(神戸),姫路鉄道部,姫路鉄道部工務,たつの市,井野原20号線,兵庫県たつの市新宮町井野原字竹端694-2,近畿,兵庫,姫新線,猪の原一,いのはらいち,34.90586,134.550225,20.165,東觜崎,播磨新宮,１種,自動(甲),単線
近統(神戸),姫路鉄道部,姫路鉄道部工務,たつの市,井野原段之上線,兵庫県たつの市新宮町井野原字下向川原719-3,近畿,兵庫,姫新線,猪の原二,いのはらに,34.90711,134.55026,20.304,東觜崎,播磨新宮,１種,自動(甲),単線
近統(神戸),姫路鉄道部,姫路鉄道部工務,兵庫県,新宮林田線,兵庫県たつの市新宮町井野原字井口941-3,近畿,兵庫,姫新線,立石,たていし,34.910788,134.550359,20.712,東觜崎,播磨新宮,１種,自動(甲),単線
近統(神戸),姫路鉄道部,姫路鉄道部工務,たつの市,井野原28号線,兵庫県たつの市新宮町井野原字上新田1-25,近畿,兵庫,姫新線,砂子,すなご,34.913177,134.550015,20.979,東觜崎,播磨新宮,１種,自動(甲),単線
近統(神戸),姫路鉄道部,姫路鉄道部工務,たつの市,新宮2号線,兵庫県たつの市新宮町新宮字中河原982-7,近畿,兵庫,姫新線,魚芳,うおよし,0,0,21.432,東觜崎,播磨新宮,１種,自動(甲),単線
近統(神戸),姫路鉄道部,姫路鉄道部工務,たつの市,新宮19号線,兵庫県たつの市新宮町新宮字元町1044-2,近畿,兵庫,姫新線,宮の前（2）,みやのまえ,0,0,21.586,東觜崎,播磨新宮,１種,自動(甲),単線
近統(神戸),姫路鉄道部,姫路鉄道部工務,兵庫県,宍粟新宮線,兵庫県たつの市新宮町新宮字元町1054-4,近畿,兵庫,姫新線,山崎街道,やまざきかいどう,0,0,21.636,東觜崎,播磨新宮,１種,自動(甲),単線
近統(神戸),姫路鉄道部,姫路鉄道部工務,たつの市,新宮17号線,兵庫県たつの市新宮町新宮字元町1050-4,近畿,兵庫,姫新線,新宮三,しんぐうさん,0,0,21.739,東觜崎,播磨新宮,１種,自動(甲),単線
近統(神戸),姫路鉄道部,姫路鉄道部工務,たつの市,新宮山崎線,兵庫県たつの市新宮町新宮字新町575-2,近畿,兵庫,姫新線,旧山崎街道,きゅうやまざきかいどう,0,0,21.814,東觜崎,播磨新宮,１種,自動(甲),単線
近統(神戸),姫路鉄道部,姫路鉄道部工務,たつの市,新宮中学校線,兵庫県たつの市新宮町新宮字境田204-7,近畿,兵庫,姫新線,大鳥,おおとり,0,0,22.375,播磨新宮,千本,１種,自動(甲),単線
近統(神戸),姫路鉄道部,姫路鉄道部工務,たつの市,平野7号線,兵庫県たつの市新宮町平野字丁田397-5,近畿,兵庫,姫新線,平野第二,ひらのだいに,0,0,23.484,播磨新宮,千本,１種,自動(甲),単線
近統(神戸),姫路鉄道部,姫路鉄道部工務,たつの市,平野1号線,兵庫県たつの市新宮町平野字門田665-2,近畿,兵庫,姫新線,平野第三,ひらのだいさん,0,0,23.791,播磨新宮,千本,１種,自動(甲),単線
近統(神戸),姫路鉄道部,姫路鉄道部工務,たつの市,平野4号線,兵庫県たつの市新宮町平野字岸ノ下820-3,近畿,兵庫,姫新線,出茶屋,でぢゃや,0,0,24.137,播磨新宮,千本,１種,自動(甲),単線
近統(神戸),姫路鉄道部,姫路鉄道部工務,たつの市,能地福栖線,兵庫県たつの市新宮町能地字バントメ128-4,近畿,兵庫,姫新線,能地第一,のうちだいいち,0,0,25.343,播磨新宮,千本,１種,自動(甲),単線
近統(神戸),姫路鉄道部,姫路鉄道部工務,たつの市,福栖千本線,兵庫県たつの市新宮町福栖字森本678-6,近畿,兵庫,姫新線,福栖,ふくす,0,0,26.083,播磨新宮,千本,１種,自動(甲),単線
近統(神戸),姫路鉄道部,姫路鉄道部工務,たつの市,農道,兵庫県たつの市新宮町千本字下河原2280-2,近畿,兵庫,姫新線,金井,かない,0,0,26.864,播磨新宮,千本,１種,自動(甲),単線
近統(神戸),姫路鉄道部,姫路鉄道部工務,たつの市,千本本通線,兵庫県たつの市新宮町千本字出口1948-4,近畿,兵庫,姫新線,千本街道,せんぼんかいどう,0,0,27.728,播磨新宮,千本,１種,自動(甲),単線
近統(神戸),姫路鉄道部,姫路鉄道部工務,たつの市,千本8号線,兵庫県たつの市新宮町千本字南1863-4,近畿,兵庫,姫新線,千本第二,せんぼんだいに,0,0,28.049,千本,西栗栖,１種,自動(甲),単線
近統(神戸),姫路鉄道部,姫路鉄道部工務,たつの市,千本本通線,兵庫県たつの市新宮町千本字大宇登12-5,近畿,兵庫,姫新線,大宇登,おおうど,0,0,29.191,千本,西栗栖,１種,自動(甲),単線
近統(神戸),姫路鉄道部,姫路鉄道部工務,たつの市,農道,兵庫県たつの市新宮町栗町字岡の下164-7,近畿,兵庫,姫新線,広芝,ひろこげ,0,0,29.856,千本,西栗栖,１種,自動(甲),単線
近統(神戸),姫路鉄道部,姫路鉄道部工務,たつの市,里道,兵庫県たつの市新宮町栗町字岡の下66-3,近畿,兵庫,姫新線,町屋,まちや,0,0,30.109,千本,西栗栖,１種,自動(甲),単線
近統(神戸),姫路鉄道部,姫路鉄道部工務,たつの市,鍛冶屋9号線,兵庫県たつの市新宮町鍛冶屋字小別当477-3,近畿,兵庫,姫新線,矢野原第二,やのはらだいに,0,0,31.526,西栗栖,三日月,１種,自動(甲),単線
近統(神戸),姫路鉄道部,姫路鉄道部工務,たつの市,下莇原2号線,兵庫県たつの市新宮町下莇原字小谷284-3,近畿,兵庫,姫新線,小谷第二,こたにだいに,0,0,34.047,西栗栖,三日月,１種,自動(甲),単線
近統(神戸),姫路鉄道部,姫路鉄道部工務,佐用町,弓木線,兵庫県佐用町三日月字上河原1824-3,近畿,兵庫,姫新線,能谷,のうたに,0,0,34.938,西栗栖,三日月,１種,自動(甲),単線
近統(神戸),姫路鉄道部,姫路鉄道部工務,佐用町,西村線,兵庫県佐用町三日月字向1716-4,近畿,兵庫,姫新線,猪谷,いのたに,0,0,35.416,西栗栖,三日月,１種,自動(甲),単線
近統(神戸),姫路鉄道部,姫路鉄道部工務,佐用町,祗園住宅線,兵庫県佐用町三日月字西田1631-3,近畿,兵庫,姫新線,西田,にしだ,0,0,35.702,西栗栖,三日月,１種,自動(甲),単線
近統(神戸),姫路鉄道部,姫路鉄道部工務,佐用町,駅裏線,兵庫県佐用町三日月字折口987-3,近畿,兵庫,姫新線,茶屋,ちゃや,0,0,36.331,西栗栖,三日月,１種,自動(甲),単線
近統(神戸),姫路鉄道部,姫路鉄道部工務,佐用町,乃井野弦谷線,兵庫県佐用町乃井野字赤社1573-3,近畿,兵庫,姫新線,三日月,みかづき,0,0,36.896,三日月,播磨徳久,１種,自動(甲),単線
近統(神戸),姫路鉄道部,姫路鉄道部工務,佐用町,赤社線,兵庫県佐用町乃井野字赤社1496-5,近畿,兵庫,姫新線,野村第一,のむらだいいち,0,0,37.544,三日月,播磨徳久,１種,自動(甲),単線
近統(神戸),姫路鉄道部,姫路鉄道部工務,佐用町,市ノ上弦谷線,兵庫県佐用町末広字南木の上163-5,近畿,兵庫,姫新線,市の上,いちのうえ,0,0,37.958,三日月,播磨徳久,１種,自動(甲),単線
近統(神戸),姫路鉄道部,姫路鉄道部工務,佐用町,上田2号線,兵庫県佐用町末広字前田302-2,近畿,兵庫,姫新線,新宿,しんじゅく,0,0,38.66,三日月,播磨徳久,１種,自動(甲),単線
近統(神戸),姫路鉄道部,姫路鉄道部工務,佐用町,久保長田線,兵庫県佐用町末広字樋の元900-3,近畿,兵庫,姫新線,末広,すえひろ,0,0,39.071,三日月,播磨徳久,１種,自動(甲),単線
近統(神戸),姫路鉄道部,姫路鉄道部工務,佐用町,久保長田線,兵庫県佐用町末広字後谷1401-98,近畿,兵庫,姫新線,第一長田,だいいちおさだ,0,0,39.819,三日月,播磨徳久,１種,自動(甲),単線
近統(神戸),姫路鉄道部,姫路鉄道部工務,佐用町,宝蔵寺線,兵庫県佐用町土井字下長田44-5,近畿,兵庫,姫新線,宝蔵寺,ほうぞうじ,0,0,40.649,三日月,播磨徳久,１種,自動(甲),単線
近統(神戸),姫路鉄道部,姫路鉄道部工務,佐用町,末広久崎線,兵庫県佐用町土井字下川原476-3,近畿,兵庫,姫新線,第二土居,だいにどい,0,0,41.113,三日月,播磨徳久,１種,自動(甲),単線
近統(神戸),姫路鉄道部,姫路鉄道部工務,その他,里道,兵庫県佐用町佐用字大坪3404-4,近畿,兵庫,姫新線,大山谷,おおやまだに,0,0,44.962,播磨徳久,佐用,１種,自動(甲),単線
近統(神戸),姫路鉄道部,姫路鉄道部工務,佐用町,新地本通線,兵庫県佐用町佐用字間島田2896-9,近畿,兵庫,姫新線,間島田,ましまだ,0,0,45.777,播磨徳久,佐用,１種,自動(甲),単線
近統(神戸),姫路鉄道部,姫路鉄道部工務,佐用町,中町大坪線,兵庫県佐用町佐用字山平2494-3,近畿,兵庫,姫新線,山平,やまひら,0,0,46.422,佐用,上月,１種,自動(甲),単線
近統(神戸),姫路鉄道部,姫路鉄道部工務,佐用町,中道線,兵庫県佐用町佐用字前田2388-4,近畿,兵庫,姫新線,前田,まえだ,0,0,46.767,佐用,上月,１種,自動(甲),単線
近統(神戸),姫路鉄道部,姫路鉄道部工務,佐用町,中町大坪線,兵庫県佐用町佐用字前田2377-3,近畿,兵庫,姫新線,大坪,おおつぼ,0,0,46.908,佐用,上月,１種,自動(甲),単線
近統(神戸),姫路鉄道部,姫路鉄道部工務,佐用町,葉草線,兵庫県佐用町山脇字ソウ木谷20-3,近畿,兵庫,姫新線,春草第一,はるくさだいいち,0,0,47.38,佐用,上月,１種,自動(甲),単線
近統(神戸),姫路鉄道部,姫路鉄道部工務,佐用町,山脇線,兵庫県佐用町山脇字前川原533-3,近畿,兵庫,姫新線,山脇第二,やまわきだいに,0,0,47.966,佐用,上月,１種,自動(甲),単線
近統(神戸),姫路鉄道部,姫路鉄道部工務,佐用町,山脇線,兵庫県佐用町山脇字才田1068-2,近畿,兵庫,姫新線,山脇第三,やまわきだいさん,0,0,48.543,佐用,上月,１種,自動(甲),単線
近統(神戸),姫路鉄道部,姫路鉄道部工務,佐用町,浜河原線,兵庫県佐用町山脇字浜河原1206-2,近畿,兵庫,姫新線,早瀬第一,はやせだいいち,0,0,48.971,佐用,上月,１種,自動(甲),単線
近統(神戸),姫路鉄道部,姫路鉄道部工務,佐用町,岡線,兵庫県佐用町早瀬字四拾代81-5,近畿,兵庫,姫新線,早瀬第二,はやせだいに,0,0,49.983,佐用,上月,１種,自動(甲),単線
近統(神戸),姫路鉄道部,姫路鉄道部工務,佐用町,早瀬岡線,兵庫県佐用町仁位字岡631-6,近畿,兵庫,姫新線,仁位,にい,0,0,50.416,佐用,上月,１種,自動(甲),単線
近統(神戸),姫路鉄道部,姫路鉄道部工務,兵庫県,国道３７３号,兵庫県佐用町上月字小山ヶ鼻509-3,近畿,兵庫,姫新線,上月,こうづき,0,0,50.62,佐用,上月,１種,自動(甲),単線
近統(神戸),姫路鉄道部,姫路鉄道部工務,佐用町,西畠線,兵庫県佐用町力万字西畑239-2,近畿,兵庫,姫新線,小日山,こひやま,0,0,52.066,上月,美作土居,１種,自動(甲),単線
近統(神戸),姫路鉄道部,姫路鉄道部工務,兵庫県,国道179号,兵庫県佐用町西大畠字竹田1-2,近畿,兵庫,姫新線,力万,りきまん,0,0,52.458,上月,美作土居,１種,自動(甲),単線
近統(神戸),姫路保線区,姫路保線管理室,兵庫県,大塩別所線,兵庫県姫路市別所町別所字西芝崎799-1,近畿,兵庫,山陽列車線,中川原二,なかがわらに,0,0,49.555,ひめじ別所,御着,１種,自動(甲),複線
近統(神戸),姫路保線区,姫路保線管理室,姫路市,里道,兵庫県姫路市御国野町御着字深見210-2,近畿,兵庫,山陽列車線,五反坪二,ごたんつぼに,0,0,50.005,ひめじ別所,御着,１種,自動(甲),複線
近統(神戸),姫路保線区,姫路保線管理室,姫路市,別所62号線,兵庫県姫路市御国野町御着字横田432-1,近畿,兵庫,山陽列車線,横田西,よこたにし,0,0,50.787,御着,姫路,１種,自動(甲),４線
近統(神戸),姫路保線区,姫路保線管理室,姫路市,四郷17号線,兵庫県姫路市御国野町御着字牛堂前636-2,近畿,兵庫,山陽列車線,牛堂前,うしどうまえ,0,0,50.915,御着,姫路,１種,自動(甲),複線
近統(神戸),姫路保線区,姫路保線管理室,姫路市,市道,兵庫県姫路市岡田字北の町625-6,近畿,兵庫,山陽列車線,栗の森,くりのもり,0,0,57.412,姫路,英賀保,１種,自動(甲),複線
近統(神戸),姫路保線区,姫路保線管理室,兵庫県,田寺．今在家,兵庫県姫路市町の坪字棚田170-3,近畿,兵庫,山陽列車線,棚田,たなだ,0,0,57.719,姫路,英賀保,１種,自動(甲),複線
近統(神戸),姫路保線区,姫路保線管理室,姫路市,里道,兵庫県姫路市町の坪字豆田493-1,近畿,兵庫,山陽列車線,豆田第三,まめだだいさん,0,0,57.938,姫路,英賀保,１種,自動(甲),複線
近統(神戸),姫路保線区,姫路保線管理室,姫路市,荒川55号,兵庫県姫路市苫編字池の下41-2,近畿,兵庫,山陽列車線,池の下第一,いけのしただいいち,0,0,58.419,姫路,英賀保,１種,自動(甲),複線
近統(神戸),姫路保線区,姫路保線管理室,姫路市,荒川56号,兵庫県姫路市苫編字村前184-1,近畿,兵庫,山陽列車線,村前第一,むらまえだいいち,0,0,58.811,姫路,英賀保,１種,自動(甲),複線
近統(神戸),姫路保線区,姫路保線管理室,姫路市,里道,兵庫県姫路市飾磨区付城字大野68-3,近畿,兵庫,山陽列車線,大野第一,おおのだいいち,0,0,59.141,姫路,英賀保,１種,自動(甲),３線
近統(神戸),姫路保線区,姫路保線管理室,姫路市,八幡74号,兵庫県姫路市飾磨区山崎字村東311-1,近畿,兵庫,山陽列車線,春日,かすが,0,0,59.731,英賀保,はりま勝原,１種,自動(甲),複線
近統(神戸),姫路保線区,姫路保線管理室,姫路市,勝原219号線,兵庫県姫路市広畑区才字西配賦663-1,近畿,兵庫,山陽列車線,配賦,はいふ,0,0,60.952,英賀保,はりま勝原,１種,自動(甲),複線
近統(神戸),姫路保線区,姫路保線管理室,姫路市,里道,兵庫県姫路市広畑区才字西配賦653-1,近畿,兵庫,山陽列車線,東配賦第二,ひがしはいふだいに,0,0,61.092,英賀保,はりま勝原,１種,自動(甲),複線
近統(神戸),姫路保線区,姫路保線管理室,姫路市,八幡230号,兵庫県姫路市広畑区才字上石田1008-1,近畿,兵庫,山陽列車線,石田,いしだ,0,0,61.334,英賀保,はりま勝原,１種,自動(甲),複線
近統(神戸),姫路保線区,姫路保線管理室,姫路市,八幡209号,兵庫県姫路市広畑区才字富津107-3,近畿,兵庫,山陽列車線,富津,とみつ,0,0,61.685,英賀保,はりま勝原,１種,自動(甲),複線
近統(神戸),姫路保線区,姫路保線管理室,姫路市,八幡227号,兵庫県姫路市広畑区則直字八反町52-2,近畿,兵庫,山陽列車線,町田,まちだ,34.81024443,134.6177634,61.933,英賀保,はりま勝原,１種,自動(甲),複線
近統(神戸),姫路保線区,姫路保線管理室,姫路市,勝原33号,兵庫県姫路市勝原区熊見字堤の下407,近畿,兵庫,山陽列車線,堤の下壱,つつみのしたいち,34.81087745,134.6070446,62.924,はりま勝原,網干,１種,自動(甲),複線
近統(神戸),姫路保線区,姫路保線管理室,姫路市,勝原30号,兵庫県姫路市勝原区山戸字五反長52-2,近畿,兵庫,山陽列車線,五反田弐,ごたんだに,34.81138404,134.602234,63.37,はりま勝原,網干,１種,自動(甲),複線
近統(神戸),姫路保線区,姫路保線管理室,姫路市,里道,兵庫県姫路市勝原区山戸字五反長56-2,近畿,兵庫,山陽列車線,五反田参,ごたんださん,34.81145479,134.6010528,63.476,はりま勝原,網干,１種,自動(甲),複線
近統(神戸),姫路保線区,姫路保線管理室,姫路市,勝原20号,兵庫県姫路市勝原区山戸字山戸243-2,近畿,兵庫,山陽列車線,上の坪壱,かみのつぼいち,34.81165105,134.5975679,63.798,はりま勝原,網干,１種,自動(甲),複線
近統(神戸),姫路保線区,姫路保線管理室,姫路市,勝原191号,兵庫県姫路市勝原区山戸字恵美穂364-1,近畿,兵庫,山陽列車線,上の坪参,かみのつぼさん,34.81174919,134.5960505,63.936,はりま勝原,網干,１種,自動(甲),複線
近統(神戸),姫路保線区,姫路保線管理室,姫路市,勝原90号,兵庫県姫路市勝原区朝日谷字雉子落233-1,近畿,兵庫,山陽列車線,雉子落,きじおち,34.81246574,134.5923626,64.281,はりま勝原,網干,１種,自動(甲),複線
近統(神戸),姫路保線区,姫路保線管理室,姫路市,里道,兵庫県姫路市網干区和久字岩ヶ坪426-4,近畿,兵庫,山陽列車線,岩ケ坪,いわがつぼ,34.8138098,134.5863709,64.855,はりま勝原,網干,１種,自動(甲),５線以上
近統(神戸),姫路保線区,姫路保線管理室,兵庫県,太子、御津,兵庫県姫路市網干区高田字茶の木362-1,近畿,兵庫,山陽列車線,茶ノ木,ちゃのき,34.8148524,134.5820931,65.262,網干,竜野,１種,自動(甲),３線
近統(神戸),姫路保線区,姫路保線管理室,太子町,認定外道路,兵庫県揖保郡太子町糸井字柿ヶ坪308-1,近畿,兵庫,山陽列車線,柿の坪,かきのつぼ,34.8152834,134.5802004,65.439,網干,竜野,１種,自動(甲),５線以上
近統(神戸),姫路保線区,相生保線管理室,太子町,中道跨線橋船代線,兵庫県揖保郡太子町船代字稲荷66-22,近畿,兵庫,山陽列車線,船代,ふなだい,34.818912,134.559974,67.331,網干,竜野,１種,自動(甲),複線
近統(神戸),姫路保線区,相生保線管理室,太子町,林田川堤防2号線,兵庫県揖保郡太子町船代字下河原100-1,近畿,兵庫,山陽列車線,下河原三,しもがはらさん,34.819362,134.557298,67.584,網干,竜野,１種,自動(甲),複線
近統(神戸),姫路保線区,相生保線管理室,兵庫県,網干たつの線,兵庫県たつの市揖保町東用字村東402-1,近畿,兵庫,山陽列車線,村東,むらひがし,34.821618,134.547927,68.484,網干,竜野,１種,自動(甲),複線
近統(神戸),姫路保線区,相生保線管理室,たつの市,西構眞砂橋線,兵庫県たつの市揖保町西構字今木239-7,近畿,兵庫,山陽列車線,北垣内,きたかきうち,34.824995,134.541227,69.202,網干,竜野,１種,自動(甲),複線
近統(神戸),姫路保線区,相生保線管理室,たつの市,揖保中真砂線,兵庫県たつの市揖保町今市字才の前36-2,近畿,兵庫,山陽列車線,来光寺,らいこうじ,34.82643538,34.82643538,69.514,網干,竜野,１種,自動(甲),複線
近統(神戸),姫路保線区,相生保線管理室,兵庫県,たつの竜野停車場線,兵庫県たつの市揖保川町黍田字口入50-4,近畿,兵庫,山陽列車線,清水,しみず,34.82582817,134.5245141,70.801,網干,竜野,１種,自動(甲),複線
近統(神戸),姫路保線区,相生保線管理室,たつの市,黍田鳥井元線,兵庫県たつの市揖保川町黍田字宮の下28-2,近畿,兵庫,山陽列車線,宮の下,みやのした,34.82582817,134.5245141,71.202,竜野,相生,１種,自動(甲),複線
近統(神戸),姫路保線区,相生保線管理室,たつの市,原藪ノ内線,兵庫県たつの市揖保川町原字田灘562-2,近畿,兵庫,山陽列車線,田灘,たなだ,34.82315171,134.5116275,72.02,竜野,相生,１種,自動(甲),複線
近統(神戸),姫路保線区,相生保線管理室,たつの市,原池田線,兵庫県たつの市揖保川町大門字池田459-3,近畿,兵庫,山陽列車線,池田一,いけだいち,34.82154996,134.5058943,72.574,竜野,相生,１種,自動(甲),複線
近統(神戸),姫路保線区,相生保線管理室,相生市,那波野30号線,兵庫県相生市那波野字土居651-4,近畿,兵庫,山陽列車線,土居三,どいさん,34.82012375,134.4949529,73.594,竜野,相生,１種,自動(甲),複線
近統(神戸),姫路保線区,相生保線管理室,相生市,那波野63号線,兵庫県相生市那波野字研屋垣内765-2,近畿,兵庫,山陽列車線,磨屋四,まやよん,34.82002101,134.491279,73.932,竜野,相生,１種,自動(甲),複線
近統(神戸),姫路保線区,相生保線管理室,相生市,池之内赤坂線,兵庫県相生市池の内字家の下543-1,近畿,兵庫,山陽列車線,家の下三,いえのしたさん,34.81890291,134.484423,74.576,竜野,相生,１種,自動(甲),複線
近統(神戸),姫路保線区,相生保線管理室,相生市,山手大石町1号線,兵庫県相生市大石町字東岡736-1,近畿,兵庫,山陽列車線,東岡,ひがしおか,34.8178684,134.4757824,75.388,竜野,相生,１種,自動(甲),３線
近統(神戸),姫路保線区,相生保線管理室,相生市,緑ケ岡本通り線,兵庫県相生市若狭野町入野字横山115-2,近畿,兵庫,山陽列車線,緑ケ丘,みどりがおか,0,0,77.643,相生,有年,１種,自動(甲),複線
近統(神戸),姫路保線区,相生保線管理室,相生市,野々13号線,兵庫県相生市若狭野町入野字池の内903-4,近畿,兵庫,山陽列車線,前田一,まえだいち,0,0,78.253,相生,有年,１種,自動(甲),複線
近統(神戸),姫路保線区,相生保線管理室,相生市,入野9号線,兵庫県相生市若狭野町入野字池の内806-2,近畿,兵庫,山陽列車線,前田四,まえだよん,0,0,78.611,相生,有年,１種,自動(甲),複線
近統(神戸),姫路保線区,相生保線管理室,相生市,入野6号線,兵庫県相生市若狭野町野々字大町筋363-2,近畿,兵庫,山陽列車線,大町筋,おおまちすじ,0,0,78.971,相生,有年,１種,自動(甲),複線
近統(神戸),姫路保線区,相生保線管理室,相生市,緑ケ丘雨内線,兵庫県相生市若狭野町野々字中上在460-1,近畿,兵庫,山陽列車線,西上佐一,にしあげさいち,0,0,79.24,相生,有年,１種,自動(甲),複線
近統(神戸),姫路保線区,相生保線管理室,相生市,八洞雨内線,兵庫県相生市若狭野町野々字西原88-2,近畿,兵庫,山陽列車線,雨内,あまうち,0,0,79.756,相生,有年,１種,自動(甲),複線
近統(神戸),姫路保線区,相生保線管理室,相生市,里道,兵庫県相生市若狭野町福井字大坪407-2,近畿,兵庫,山陽列車線,大坪二,おおつぼに,0,0,80.347,相生,有年,１種,自動(甲),複線
近統(神戸),姫路保線区,相生保線管理室,相生市,福井雨内線,兵庫県相生市若狭野町福井字焼間田65-1,近畿,兵庫,山陽列車線,焼間田,やきまた,0,0,80.463,相生,有年,１種,自動(甲),複線
近統(神戸),姫路保線区,相生保線管理室,相生市,若狭野道,兵庫県相生市若狭野町若狭野字小山田131-1,近畿,兵庫,山陽列車線,小山田二,おやまだに,0,0,81.023,相生,有年,１種,自動(甲),複線
近統(神戸),姫路保線区,相生保線管理室,赤穂市,成林線,兵庫県赤穂市牟礼字天通り321,近畿,兵庫,山陽列車線,天通り二,あまどおりに,0,0,82.108,相生,有年,１種,自動(甲),複線
近統(神戸),姫路保線区,相生保線管理室,赤穂市,里道,兵庫県赤穂市横尾字畑64-1,近畿,兵庫,山陽列車線,畑二,はたに,0,0,82.354,相生,有年,１種,自動(甲),複線
近統(神戸),姫路保線区,相生保線管理室,赤穂市,,兵庫県赤穂市有年横尾(付近),近畿,兵庫,山陽列車線,松ヶ瀬,まつがせ,34.829883,134.3993464,82.748,相生,有年,１種,自動(甲),複線
近統(神戸),姫路保線区,相生保線管理室,赤穂市,原柏原線,兵庫県赤穂市原字北原191-2,近畿,兵庫,山陽列車線,北原,きたはら,0,0,84.046,有年,上郡,１種,自動(甲),複線
近統(神戸),姫路保線区,相生保線管理室,赤穂市,里道,兵庫県赤穂市原字観音下1064-1,近畿,兵庫,山陽列車線,観音一,かんのんいち,0,0,84.278,有年,上郡,１種,自動(甲),複線
近統(神戸),姫路保線区,相生保線管理室,赤穂市,原柏原線,兵庫県赤穂市有年楢原,近畿,兵庫,山陽列車線,柏原,かしはら,34.849444,134.376716,84.91,有年,上郡,１種,自動(甲),複線
近統(神戸),姫路保線区,相生保線管理室,兵庫県,野桑有年停車場線,兵庫県上郡町釜島字南396-78,近畿,兵庫,山陽列車線,南二,みなみに,0,0,85.454,有年,上郡,１種,自動(甲),複線
近統(神戸),姫路保線区,相生保線管理室,上郡町,農道,兵庫県赤穂郡上郡町釜島字寺の下260-3,近畿,兵庫,山陽列車線,寺の下三,てらのしたさん,0,0,85.76,有年,上郡,１種,自動(甲),複線
近統(神戸),姫路保線区,相生保線管理室,上郡町,釜島寺ノ下線,兵庫県赤穂群上郡町釜島字高畑131-2,近畿,兵庫,山陽列車線,高尾三,たかおさん,0,0,85.987,有年,上郡,１種,自動(甲),複線
近統(神戸),姫路保線区,相生保線管理室,上郡町,西野山与井線,兵庫県赤穂郡上郡町与井新字的打255-1,近畿,兵庫,山陽列車線,的打一,まとうちいち,0,0,86.475,有年,上郡,１種,自動(甲),複線
近統(神戸),姫路保線区,相生保線管理室,上郡町,農道,兵庫県赤穂郡上郡町与井新字的打204-2,近畿,兵庫,山陽列車線,的打二,まとうちに,0,0,86.66,有年,上郡,１種,自動(甲),複線
近統(神戸),姫路保線区,相生保線管理室,上郡町,中野与井線,兵庫県赤穂郡上郡町与井字東門553-3,近畿,兵庫,山陽列車線,馬場参,ばばさん,0,0,87.083,有年,上郡,１種,自動(甲),複線
近統(神戸),姫路保線区,相生保線管理室,上郡町,与井新与井線,兵庫県赤穂郡上郡町与井字長通268-5,近畿,兵庫,山陽列車線,宮の下,みやのした,0,0,87.225,有年,上郡,１種,自動(甲),複線
近統(神戸),姫路保線区,相生保線管理室,兵庫県,姫路上郡線,兵庫県赤穂郡上郡町与井字大倉174-1,近畿,兵庫,山陽列車線,寺前一,てらまえいち,0,0,87.681,有年,上郡,１種,自動(甲),複線
近統(神戸),姫路保線区,相生保線管理室,上郡町,駅前竹万山田線,兵庫県赤穂郡上郡町竹万字古屋敷319-1,近畿,兵庫,山陽列車線,古屋敷一,ふるやしきいち,0,0,89.263,有年,上郡,１種,自動(甲),３線
近統(神戸),姫路保線区,相生保線管理室,上郡町,山野里井上中央線,兵庫県赤穂郡上郡町山の里字下神田2362-2,近畿,兵庫,山陽列車線,山の里,やまのさと,0,0,89.95,上郡,三石,１種,自動(甲),４線
近統(神戸),姫路保線区,相生保線管理室,上郡町,湯ノ脇西方寺線,兵庫県赤穂郡上郡町船坂字五反田82-3,近畿,兵庫,山陽列車線,走り上り,はしりあがり,0,0,91.611,上郡,三石,１種,自動(甲),複線
近統(神戸),姫路保線区,相生保線管理室,上郡町,麦尻津原線,兵庫県赤穂郡上郡町船坂字麦尻前297-2,近畿,兵庫,山陽列車線,麦尻の前,むぎじりのまえ,0,0,92.023,上郡,三石,１種,自動(甲),複線
近統(神戸),姫路保線区,相生保線管理室,上郡町,西方寺1号線,兵庫県赤穂郡上郡町船坂字コハカ免707,近畿,兵庫,山陽列車線,西方寺,さいほうじ,0,0,92.254,上郡,三石,１種,自動(甲),複線
近統(神戸),姫路保線区,相生保線管理室,上郡町,梨ケ原線,兵庫県赤穂郡上郡町梨ヶ原字尾の鼻104,近畿,兵庫,山陽列車線,梨ケ原国道,なしがはらこくどう,0,0,98.78,上郡,三石,１種,自動(甲),複線
近統(神戸),姫路保線区,相生保線管理室,相生市,里道,兵庫県相生市那波字深辺1888-3,近畿,兵庫,赤穂線,那波,なば,34.80691613,134.459379,2.086,相生,西相生,４種,NO DATA,単線
近統(神戸),姫路保線区,相生保線管理室,赤穂市,浜市西ノ山線,兵庫県赤穂市坂越字寺内314-2,近畿,兵庫,赤穂線,浜市第二,はまいちだいに,34.76760893,134.4224782,7.51,西相生,坂越,１種,自動(甲),単線
近統(神戸),姫路保線区,相生保線管理室,赤穂市,砂子御山線,兵庫県赤穂市坂越字茶木内99-4,近畿,兵庫,赤穂線,砂子,まなご,34.76696801,134.4150671,8.126,坂越,播州赤穂,１種,自動(甲),単線
近統(神戸),姫路保線区,相生保線管理室,赤穂市,北野中南線,兵庫県赤穂市北野中字瓦師289-2,近畿,兵庫,赤穂線,北野中第二,きたのなかだいに,34.76299062,134.4102288,8.75,坂越,播州赤穂,１種,自動(甲),単線
近統(神戸),姫路保線区,相生保線管理室,赤穂市,北野中興福寺線,兵庫県赤穂市北野中字新田402-2,近畿,兵庫,赤穂線,北野中第三,きたのなかだいさん,34.76077342,134.4075388,9.096,坂越,播州赤穂,１種,自動(甲),単線
近統(神戸),姫路保線区,相生保線管理室,赤穂市,春日神社北線,兵庫県赤穂市南野中字島田166-2,近畿,兵庫,赤穂線,北野中第四,きたのなかだいよん,34.76022996,134.4068886,9.182,坂越,播州赤穂,１種,自動(甲),単線
近統(神戸),姫路保線区,相生保線管理室,赤穂市,中広南野中線,兵庫県赤穂市南野中字島田203-19,近畿,兵庫,赤穂線,南野中第一,みなみのなかだいいち,34.75926404,134.405638,9.34,坂越,播州赤穂,１種,自動(甲),単線
近統(神戸),姫路保線区,相生保線管理室,赤穂市,愛宕山堤防線,兵庫県赤穂市南野中字島田251-2,近畿,兵庫,赤穂線,南野中第二,みなみのなかだいに,34.75794186,134.4032731,9.605,坂越,播州赤穂,１種,自動(甲),単線
近統(神戸),姫路保線区,相生保線管理室,赤穂市,中広南野中線,兵庫県赤穂市中広字別所108-11,近畿,兵庫,赤穂線,加里屋第一,かりやだいいち,34.75679994,134.3989379,10.019,坂越,播州赤穂,１種,自動(甲),単線
近統(神戸),姫路保線区,相生保線管理室,赤穂市,小学校大師山線,兵庫県赤穂市加里屋字中州22-3,近畿,兵庫,赤穂線,加里屋第三,かりやだいさん,34.75669021,134.3965479,10.238,坂越,播州赤穂,１種,自動(甲),単線
近統(神戸),姫路保線区,相生保線管理室,赤穂市,岩ノ道線,兵庫県赤穂市加里屋字岩453-3,近畿,兵庫,赤穂線,加里屋第四,かりやだいよん,34.7566533,134.3898254,10.852,播州赤穂,西浜信,１種,自動(甲),単線
近統(神戸),姫路保線区,相生保線管理室,赤穂市,片浜町24号線,兵庫県赤穂市新田字三ツ樋元999-6,近畿,兵庫,赤穂線,三ツ樋元第一,みつひもとだいいち,34.75396527,134.3768526,12.104,播州赤穂,西浜信,１種,自動(甲),単線
近統(神戸),姫路保線区,相生保線管理室,赤穂市,播磨耐火社宅線,兵庫県赤穂市鷆和字古浜623,近畿,兵庫,赤穂線,前田,まえだ,34.75060584,134.3551392,14.164,西浜信,天和,１種,自動(甲),単線
近統(神戸),姫路保線区,相生保線管理室,赤穂市,眞木網崎1号線,兵庫県赤穂市鷆和字野々内1121-3,近畿,兵庫,赤穂線,野々内第二,ののうちだいに,34.74858943,134.3498589,14.691,天和,備前福河,１種,自動(甲),単線
近統(神戸),姫路保線区,相生保線管理室,赤穂市,農道,兵庫県赤穂市鷆和字野々内1096-4,近畿,兵庫,赤穂線,野々内第四,ののうちだいよん,34.74712334,134.3460293,15.077,天和,備前福河,１種,自動(甲),単線
近統(神戸),姫路保線区,相生保線管理室,赤穂市,眞木網崎山手線,兵庫県赤穂市鷆和字野々内1079-26,近畿,兵庫,赤穂線,野々内第五,ののうちだいご,34.7465113,134.3442117,15.258,天和,備前福河,１種,自動(甲),単線
近統(神戸),姫路保線区,相生保線管理室,赤穂市,新田1号線,兵庫県赤穂市福浦字東木場3103-8,近畿,兵庫,赤穂線,福浦第一,ふくうらだいいち,34.7467255,134.3297487,16.586,備前福河,寒河,１種,自動(甲),単線